start=new Date('2022-11-29T00:00:00.000Z').valueOf();
sats=[{"REF_FRAME":"TEME","TLE_LINE2":"2 47726  53.0540 178.9943 0002285  58.4254 301.6958 15.06394944 97318","LAUNCH_DATE":"2021-03-04","EPHEMERIS_TYPE":"0","OBJECT_TYPE":"PAYLOAD","BSTAR":"-0.00006108600000","OBJECT_ID":"2021-017E","SEMIMAJOR_AXIS":"6925.364","NORAD_CAT_ID":"47726","TLE_LINE1":"1 47726U 21017E   22331.83780195 -.00001191  00000-0 -61086-4 0  9998","INCLINATION":"53.0540","PERIAPSIS":"545.647","REV_AT_EPOCH":"9731","MEAN_MOTION_DOT":"-0.00001191","MEAN_ELEMENT_THEORY":"SGP4","MEAN_ANOMALY":"301.6958","CLASSIFICATION_TYPE":"U","ARG_OF_PERICENTER":"58.4254","FILE":"3671921","CENTER_NAME":"EARTH","MEAN_MOTION_DDOT":"0.0000000000000","GP_ID":"218990358","RCS_SIZE":"MEDIUM","PERIOD":"95.592","TIME_SYSTEM":"UTC","RA_OF_ASC_NODE":"178.9943","APOAPSIS":"548.811","ECCENTRICITY":"0.00022850","EPOCH":"2022-11-27T20:06:26.088480","SITE":"AFETR","COUNTRY_CODE":"US","OBJECT_NAME":"STARLINK-2126","DECAY_DATE":null,"MEAN_MOTION":"15.06394944","ELEMENT_SET_NO":"999"},{"OBJECT_NAME":"STARLINK-2129","COUNTRY_CODE":"US","MEAN_MOTION":"15.06387671","ELEMENT_SET_NO":"999","DECAY_DATE":null,"CENTER_NAME":"EARTH","GP_ID":"218996898","MEAN_MOTION_DDOT":"0.0000000000000","APOAPSIS":"548.306","RA_OF_ASC_NODE":"98.0233","ECCENTRICITY":"0.00015230","EPOCH":"2022-11-28T01:18:13.955616","SITE":"AFETR","RCS_SIZE":"LARGE","TIME_SYSTEM":"UTC","PERIOD":"95.593","CLASSIFICATION_TYPE":"U","ARG_OF_PERICENTER":"58.4097","FILE":"3672025","MEAN_MOTION_DOT":"-0.00002183","MEAN_ANOMALY":"301.7040","MEAN_ELEMENT_THEORY":"SGP4","LAUNCH_DATE":"2021-03-04","EPHEMERIS_TYPE":"0","OBJECT_TYPE":"PAYLOAD","REF_FRAME":"TEME","TLE_LINE2":"2 47727  53.0541  98.0233 0001523  58.4097 301.7040 15.06387671 97843","NORAD_CAT_ID":"47727","TLE_LINE1":"1 47727U 21017F   22332.05432819 -.00002183  00000-0 -12775-3 0  9993","INCLINATION":"53.0541","PERIAPSIS":"546.197","REV_AT_EPOCH":"9784","BSTAR":"-0.00012775000000","OBJECT_ID":"2021-017F","SEMIMAJOR_AXIS":"6925.386"},{"GP_ID":"219002473","MEAN_MOTION_DDOT":"0.0000000000000","CENTER_NAME":"EARTH","PERIOD":"95.593","TIME_SYSTEM":"UTC","RCS_SIZE":"LARGE","EPOCH":"2022-11-28T06:38:04.057440","SITE":"AFETR","RA_OF_ASC_NODE":"177.0158","APOAPSIS":"548.487","ECCENTRICITY":"0.00017960","COUNTRY_CODE":"US","OBJECT_NAME":"STARLINK-2131","DECAY_DATE":null,"MEAN_MOTION":"15.06390370","ELEMENT_SET_NO":"999","REF_FRAME":"TEME","TLE_LINE2":"2 47728  53.0541 177.0158 0001796  75.8449 284.2739 15.06390370 96764","OBJECT_TYPE":"PAYLOAD","LAUNCH_DATE":"2021-03-04","EPHEMERIS_TYPE":"0","SEMIMAJOR_AXIS":"6925.378","BSTAR":"-0.00009283600000","OBJECT_ID":"2021-017G","REV_AT_EPOCH":"9676","PERIAPSIS":"545.999","INCLINATION":"53.0541","NORAD_CAT_ID":"47728","TLE_LINE1":"1 47728U 21017G   22332.27643585 -.00001664  00000-0 -92836-4 0  9992","MEAN_MOTION_DOT":"-0.00001664","MEAN_ANOMALY":"284.2739","MEAN_ELEMENT_THEORY":"SGP4","ARG_OF_PERICENTER":"75.8449","FILE":"3672321","CLASSIFICATION_TYPE":"U"},{"MEAN_MOTION_DDOT":"0.0000000000000","GP_ID":"219002809","CENTER_NAME":"EARTH","TIME_SYSTEM":"UTC","PERIOD":"95.592","RCS_SIZE":"LARGE","EPOCH":"2022-11-28T10:30:58.358016","SITE":"AFETR","RA_OF_ASC_NODE":"121.5023","APOAPSIS":"548.217","ECCENTRICITY":"0.00014420","COUNTRY_CODE":"US","OBJECT_NAME":"STARLINK-2132","DECAY_DATE":null,"MEAN_MOTION":"15.06398549","ELEMENT_SET_NO":"999","TLE_LINE2":"2 47729  53.0538 121.5023 0001442  75.6574 284.4575 15.06398549 97566","REF_FRAME":"TEME","OBJECT_TYPE":"PAYLOAD","LAUNCH_DATE":"2021-03-04","EPHEMERIS_TYPE":"0","SEMIMAJOR_AXIS":"6925.353","BSTAR":"0.00000068045000","OBJECT_ID":"2021-017H","PERIAPSIS":"546.219","INCLINATION":"53.0538","REV_AT_EPOCH":"9756","NORAD_CAT_ID":"47729","TLE_LINE1":"1 47729U 21017H   22332.43817544 -.00000271  00000-0  68045-6 0  9998","MEAN_MOTION_DOT":"-0.00000271","MEAN_ANOMALY":"284.4575","MEAN_ELEMENT_THEORY":"SGP4","ARG_OF_PERICENTER":"75.6574","FILE":"3672321","CLASSIFICATION_TYPE":"U"},{"DECAY_DATE":null,"MEAN_MOTION":"15.06385186","ELEMENT_SET_NO":"999","COUNTRY_CODE":"US","OBJECT_NAME":"STARLINK-2140","RCS_SIZE":"LARGE","TIME_SYSTEM":"UTC","PERIOD":"95.593","RA_OF_ASC_NODE":"193.7095","APOAPSIS":"548.638","ECCENTRICITY":"0.00019910","EPOCH":"2022-11-27T21:37:19.973568","SITE":"AFETR","CENTER_NAME":"EARTH","GP_ID":"218990858","MEAN_MOTION_DDOT":"0.0000000000000","MEAN_MOTION_DOT":"-0.00000842","MEAN_ANOMALY":"307.0485","MEAN_ELEMENT_THEORY":"SGP4","CLASSIFICATION_TYPE":"U","ARG_OF_PERICENTER":"53.0687","FILE":"3671921","BSTAR":"-0.00003766900000","OBJECT_ID":"2021-017J","SEMIMAJOR_AXIS":"6925.394","NORAD_CAT_ID":"47730","TLE_LINE1":"1 47730U 21017J   22331.90092562 -.00000842  00000-0 -37669-4 0  9997","REV_AT_EPOCH":"9712","PERIAPSIS":"545.880","INCLINATION":"53.0539","TLE_LINE2":"2 47730  53.0539 193.7095 0001991  53.0687 307.0485 15.06385186 97120","REF_FRAME":"TEME","LAUNCH_DATE":"2021-03-04","EPHEMERIS_TYPE":"0","OBJECT_TYPE":"PAYLOAD"},{"REF_FRAME":"TEME","TLE_LINE2":"2 47731  53.0548 185.7093 0001695  68.3413 291.7756 15.06396398 96662","OBJECT_TYPE":"PAYLOAD","EPHEMERIS_TYPE":"0","LAUNCH_DATE":"2021-03-04","SEMIMAJOR_AXIS":"6925.360","OBJECT_ID":"2021-017K","BSTAR":"0.00009014700000","PERIAPSIS":"546.051","REV_AT_EPOCH":"9666","INCLINATION":"53.0548","TLE_LINE1":"1 47731U 21017K   22332.57038010  .00001061  00000-0  90147-4 0  9992","NORAD_CAT_ID":"47731","MEAN_ELEMENT_THEORY":"SGP4","MEAN_ANOMALY":"291.7756","MEAN_MOTION_DOT":"0.00001061","FILE":"3672568","ARG_OF_PERICENTER":"68.3413","CLASSIFICATION_TYPE":"U","MEAN_MOTION_DDOT":"0.0000000000000","GP_ID":"219007580","CENTER_NAME":"EARTH","PERIOD":"95.592","TIME_SYSTEM":"UTC","RCS_SIZE":"LARGE","SITE":"AFETR","EPOCH":"2022-11-28T13:41:20.840640","ECCENTRICITY":"0.00016950","APOAPSIS":"548.398","RA_OF_ASC_NODE":"185.7093","COUNTRY_CODE":"US","OBJECT_NAME":"STARLINK-2141","DECAY_DATE":null,"ELEMENT_SET_NO":"999","MEAN_MOTION":"15.06396398"},{"COUNTRY_CODE":"US","OBJECT_NAME":"STARLINK-2142","DECAY_DATE":null,"ELEMENT_SET_NO":"999","MEAN_MOTION":"15.06387537","CENTER_NAME":"EARTH","GP_ID":"218989857","MEAN_MOTION_DDOT":"0.0000000000000","RCS_SIZE":"LARGE","TIME_SYSTEM":"UTC","PERIOD":"95.593","ECCENTRICITY":"0.00013910","APOAPSIS":"548.215","RA_OF_ASC_NODE":"104.6437","SITE":"AFETR","EPOCH":"2022-11-27T17:55:46.079040","MEAN_ELEMENT_THEORY":"SGP4","MEAN_ANOMALY":"277.1443","MEAN_MOTION_DOT":"-0.00000348","CLASSIFICATION_TYPE":"U","FILE":"3671921","ARG_OF_PERICENTER":"82.9704","REF_FRAME":"TEME","TLE_LINE2":"2 47732  53.0553 104.6437 0001391  82.9704 277.1443 15.06387537 98364","EPHEMERIS_TYPE":"0","LAUNCH_DATE":"2021-03-04","OBJECT_TYPE":"PAYLOAD","OBJECT_ID":"2021-017L","BSTAR":"-0.00000449340000","SEMIMAJOR_AXIS":"6925.387","TLE_LINE1":"1 47732U 21017L   22331.74706110 -.00000348  00000-0 -44934-5 0  9997","NORAD_CAT_ID":"47732","PERIAPSIS":"546.288","REV_AT_EPOCH":"9836","INCLINATION":"53.0553"},{"GP_ID":"219007789","MEAN_MOTION_DDOT":"0.0000000000000","CENTER_NAME":"EARTH","TIME_SYSTEM":"UTC","PERIOD":"95.592","RCS_SIZE":"LARGE","SITE":"AFETR","EPOCH":"2022-11-28T08:37:28.379136","ECCENTRICITY":"0.00017000","RA_OF_ASC_NODE":"196.6516","APOAPSIS":"548.391","COUNTRY_CODE":"US","OBJECT_NAME":"STARLINK-2143","DECAY_DATE":null,"ELEMENT_SET_NO":"999","MEAN_MOTION":"15.06399855","REF_FRAME":"TEME","TLE_LINE2":"2 47733  53.0543 196.6516 0001700  64.0809 296.0355 15.06399855 96494","OBJECT_TYPE":"PAYLOAD","EPHEMERIS_TYPE":"0","LAUNCH_DATE":"2021-03-04","SEMIMAJOR_AXIS":"6925.349","OBJECT_ID":"2021-017M","BSTAR":"-0.00002858800000","PERIAPSIS":"546.037","REV_AT_EPOCH":"9649","INCLINATION":"53.0543","TLE_LINE1":"1 47733U 21017M   22332.35935624 -.00000707  00000-0 -28588-4 0  9995","NORAD_CAT_ID":"47733","MEAN_ELEMENT_THEORY":"SGP4","MEAN_ANOMALY":"296.0355","MEAN_MOTION_DOT":"-0.00000707","FILE":"3672569","ARG_OF_PERICENTER":"64.0809","CLASSIFICATION_TYPE":"U"},{"MEAN_MOTION_DOT":"-0.00000961","MEAN_ANOMALY":"286.7569","MEAN_ELEMENT_THEORY":"SGP4","CLASSIFICATION_TYPE":"U","ARG_OF_PERICENTER":"73.3585","FILE":"3671921","BSTAR":"-0.00004562200000","OBJECT_ID":"2021-017N","SEMIMAJOR_AXIS":"6925.346","NORAD_CAT_ID":"47734","TLE_LINE1":"1 47734U 21017N   22331.91428889 -.00000961  00000-0 -45622-4 0  9997","REV_AT_EPOCH":"9721","PERIAPSIS":"546.173","INCLINATION":"53.0549","TLE_LINE2":"2 47734  53.0549 188.6502 0001500  73.3585 286.7569 15.06400714 97210","REF_FRAME":"TEME","LAUNCH_DATE":"2021-03-04","EPHEMERIS_TYPE":"0","OBJECT_TYPE":"PAYLOAD","DECAY_DATE":null,"MEAN_MOTION":"15.06400714","ELEMENT_SET_NO":"999","COUNTRY_CODE":"US","OBJECT_NAME":"STARLINK-2144","RCS_SIZE":"LARGE","PERIOD":"95.592","TIME_SYSTEM":"UTC","RA_OF_ASC_NODE":"188.6502","APOAPSIS":"548.250","ECCENTRICITY":"0.00015000","EPOCH":"2022-11-27T21:56:34.560096","SITE":"AFETR","CENTER_NAME":"EARTH","MEAN_MOTION_DDOT":"0.0000000000000","GP_ID":"218990359"},{"CENTER_NAME":"EARTH","GP_ID":"219002830","MEAN_MOTION_DDOT":"0.0000000000000","RA_OF_ASC_NODE":"111.6604","APOAPSIS":"548.303","ECCENTRICITY":"0.00015720","EPOCH":"2022-11-28T09:28:35.217984","SITE":"AFETR","RCS_SIZE":"LARGE","PERIOD":"95.592","TIME_SYSTEM":"UTC","OBJECT_NAME":"STARLINK-2146","COUNTRY_CODE":"US","MEAN_MOTION":"15.06399652","ELEMENT_SET_NO":"999","DECAY_DATE":null,"LAUNCH_DATE":"2021-03-04","EPHEMERIS_TYPE":"0","OBJECT_TYPE":"PAYLOAD","TLE_LINE2":"2 47735  53.0562 111.6604 0001572  75.6522 284.4641 15.06399652 97685","REF_FRAME":"TEME","NORAD_CAT_ID":"47735","TLE_LINE1":"1 47735U 21017P   22332.39485206  .00000546  00000-0  55528-4 0  9990","PERIAPSIS":"546.126","INCLINATION":"53.0562","REV_AT_EPOCH":"9768","BSTAR":"0.00005552800000","OBJECT_ID":"2021-017P","SEMIMAJOR_AXIS":"6925.350","CLASSIFICATION_TYPE":"U","ARG_OF_PERICENTER":"75.6522","FILE":"3672322","MEAN_MOTION_DOT":"0.00000546","MEAN_ELEMENT_THEORY":"SGP4","MEAN_ANOMALY":"284.4641"}];
